CCSDS_OMM_VERS = 2.0
CREATION_DATE  = 
ORIGINATOR     = 

OBJECT_NAME    = STARLINK-35999
OBJECT_ID      = 2025-286AC
CENTER_NAME    = EARTH
REF_FRAME      = TEME
TIME_SYSTEM    = UTC
MEAN_ELEMENT_THEORY = SGP/SGP4

EPOCH          = 2025-12-20T06:00:02.999808
MEAN_MOTION    = 15.76956954
ECCENTRICITY   = .00010232
INCLINATION    = 53.1558
RA_OF_ASC_NODE = 12.6129
ARG_OF_PERICENTER = 89.0915
MEAN_ANOMALY   = 197.8186

EPHEMERIS_TYPE = 0
CLASSIFICATION_TYPE = U
NORAD_CAT_ID   = 66951
ELEMENT_SET_NO = 999
REV_AT_EPOCH   = 319
BSTAR          = -.11085801E-1
MEAN_MOTION_DOT = -.1630516E-1
MEAN_MOTION_DDOT = 0

CCSDS_OMM_VERS = 2.0
CREATION_DATE  = 
ORIGINATOR     = 

OBJECT_NAME    = STARLINK-36122
OBJECT_ID      = 2025-286AD
CENTER_NAME    = EARTH
REF_FRAME      = TEME
TIME_SYSTEM    = UTC
MEAN_ELEMENT_THEORY = SGP/SGP4

EPOCH          = 2025-12-20T06:00:02.999808
MEAN_MOTION    = 15.77032698
ECCENTRICITY   = .0001064
INCLINATION    = 53.1556
RA_OF_ASC_NODE = 12.6219
ARG_OF_PERICENTER = 82.6307
MEAN_ANOMALY   = 200.1586

EPHEMERIS_TYPE = 0
CLASSIFICATION_TYPE = U
NORAD_CAT_ID   = 66952
ELEMENT_SET_NO = 999
REV_AT_EPOCH   = 319
BSTAR          = -.10918064E-1
MEAN_MOTION_DOT = -.1582501E-1
MEAN_MOTION_DDOT = 0

CCSDS_OMM_VERS = 2.0
CREATION_DATE  = 
ORIGINATOR     = 

OBJECT_NAME    = HULIANWANG DIGUI-114
OBJECT_ID      = 2025-287A
CENTER_NAME    = EARTH
REF_FRAME      = TEME
TIME_SYSTEM    = UTC
MEAN_ELEMENT_THEORY = SGP/SGP4

EPOCH          = 2025-12-18T14:58:33.375360
MEAN_MOTION    = 13.67416524
ECCENTRICITY   = .00087038
INCLINATION    = 86.4968
RA_OF_ASC_NODE = 344.0089
ARG_OF_PERICENTER = 188.5983
MEAN_ANOMALY   = 171.5028

EPHEMERIS_TYPE = 0
CLASSIFICATION_TYPE = U
NORAD_CAT_ID   = 66953
ELEMENT_SET_NO = 999
REV_AT_EPOCH   = 133
BSTAR          = .10869035E-4
MEAN_MOTION_DOT = .26E-6
MEAN_MOTION_DDOT = 0

CCSDS_OMM_VERS = 2.0
CREATION_DATE  = 
ORIGINATOR     = 

OBJECT_NAME    = HULIANWANG DIGUI-115
OBJECT_ID      = 2025-287B
CENTER_NAME    = EARTH
REF_FRAME      = TEME
TIME_SYSTEM    = UTC
MEAN_ELEMENT_THEORY = SGP/SGP4

EPOCH          = 2025-12-18T14:57:30.566880
MEAN_MOTION    = 13.67541232
ECCENTRICITY   = .00089471
INCLINATION    = 86.4978
RA_OF_ASC_NODE = 344.0137
ARG_OF_PERICENTER = 187.4507
MEAN_ANOMALY   = 172.6520

EPHEMERIS_TYPE = 0
CLASSIFICATION_TYPE = U
NORAD_CAT_ID   = 66954
ELEMENT_SET_NO = 999
REV_AT_EPOCH   = 133
BSTAR          = .10944943E-4
MEAN_MOTION_DOT = .26E-6
MEAN_MOTION_DDOT = 0

CCSDS_OMM_VERS = 2.0
CREATION_DATE  = 
ORIGINATOR     = 

OBJECT_NAME    = HULIANWANG DIGUI-116
OBJECT_ID      = 2025-287C
CENTER_NAME    = EARTH
REF_FRAME      = TEME
TIME_SYSTEM    = UTC
MEAN_ELEMENT_THEORY = SGP/SGP4

EPOCH          = 2025-12-18T14:56:21.725088
MEAN_MOTION    = 13.67658665
ECCENTRICITY   = .00085044
INCLINATION    = 86.4902
RA_OF_ASC_NODE = 344.0030
ARG_OF_PERICENTER = 181.1085
MEAN_ANOMALY   = 179.0056

EPHEMERIS_TYPE = 0
CLASSIFICATION_TYPE = U
NORAD_CAT_ID   = 66955
ELEMENT_SET_NO = 999
REV_AT_EPOCH   = 133
BSTAR          = .14472334E-3
MEAN_MOTION_DOT = .139E-5
MEAN_MOTION_DDOT = 0

CCSDS_OMM_VERS = 2.0
CREATION_DATE  = 
ORIGINATOR     = 

OBJECT_NAME    = HULIANWANG DIGUI-117
OBJECT_ID      = 2025-287D
CENTER_NAME    = EARTH
REF_FRAME      = TEME
TIME_SYSTEM    = UTC
MEAN_ELEMENT_THEORY = SGP/SGP4

EPOCH          = 2025-12-18T14:55:12.079776
MEAN_MOTION    = 13.67770338
ECCENTRICITY   = .00076767
INCLINATION    = 86.4971
RA_OF_ASC_NODE = 344.0126
ARG_OF_PERICENTER = 176.3616
MEAN_ANOMALY   = 183.7600

EPHEMERIS_TYPE = 0
CLASSIFICATION_TYPE = U
NORAD_CAT_ID   = 66956
ELEMENT_SET_NO = 999
REV_AT_EPOCH   = 133
BSTAR          = .10922436E-4
MEAN_MOTION_DOT = .26E-6
MEAN_MOTION_DDOT = 0

CCSDS_OMM_VERS = 2.0
CREATION_DATE  = 
ORIGINATOR     = 

OBJECT_NAME    = HULIANWANG DIGUI-118
OBJECT_ID      = 2025-287E
CENTER_NAME    = EARTH
REF_FRAME      = TEME
TIME_SYSTEM    = UTC
MEAN_ELEMENT_THEORY = SGP/SGP4

EPOCH          = 2025-12-19T17:14:01.622976
MEAN_MOTION    = 13.67870424
ECCENTRICITY   = .00073636
INCLINATION    = 86.4967
RA_OF_ASC_NODE = 343.6097
ARG_OF_PERICENTER = 172.7883
MEAN_ANOMALY   = 187.3383

EPHEMERIS_TYPE = 0
CLASSIFICATION_TYPE = U
NORAD_CAT_ID   = 66957
ELEMENT_SET_NO = 999
REV_AT_EPOCH   = 148
BSTAR          = .13028429E-3
MEAN_MOTION_DOT = .127E-5
MEAN_MOTION_DDOT = 0

CCSDS_OMM_VERS = 2.0
CREATION_DATE  = 
ORIGINATOR     = 

OBJECT_NAME    = CZ-6A R/B
OBJECT_ID      = 2025-287F
CENTER_NAME    = EARTH
REF_FRAME      = TEME
TIME_SYSTEM    = UTC
MEAN_ELEMENT_THEORY = SGP/SGP4

EPOCH          = 2025-12-20T05:38:12.477696
MEAN_MOTION    = 13.94920876
ECCENTRICITY   = .01072831
INCLINATION    = 86.5061
RA_OF_ASC_NODE = 343.2512
ARG_OF_PERICENTER = 79.6243
MEAN_ANOMALY   = 281.7002

EPHEMERIS_TYPE = 0
CLASSIFICATION_TYPE = U
NORAD_CAT_ID   = 66958
ELEMENT_SET_NO = 999
REV_AT_EPOCH   = 158
BSTAR          = .34767493E-4
MEAN_MOTION_DOT = .68E-6
MEAN_MOTION_DDOT = 0

CCSDS_OMM_VERS = 2.0
CREATION_DATE  = 
ORIGINATOR     = 

OBJECT_NAME    = STARLINK-35887
OBJECT_ID      = 2025-288A
CENTER_NAME    = EARTH
REF_FRAME      = TEME
TIME_SYSTEM    = UTC
MEAN_ELEMENT_THEORY = SGP/SGP4

EPOCH          = 2025-12-20T06:00:02.999808
MEAN_MOTION    = 15.81364373
ECCENTRICITY   = .00016756
INCLINATION    = 43.0010
RA_OF_ASC_NODE = 121.1834
ARG_OF_PERICENTER = 271.2794
MEAN_ANOMALY   = 86.2309

EPHEMERIS_TYPE = 0
CLASSIFICATION_TYPE = U
NORAD_CAT_ID   = 66959
ELEMENT_SET_NO = 999
REV_AT_EPOCH   = 303
BSTAR          = -.70337868E-2
MEAN_MOTION_DOT = -.1268419E-1
MEAN_MOTION_DDOT = 0

CCSDS_OMM_VERS = 2.0
CREATION_DATE  = 
ORIGINATOR     = 

OBJECT_NAME    = STARLINK-35879
OBJECT_ID      = 2025-288B
CENTER_NAME    = EARTH
REF_FRAME      = TEME
TIME_SYSTEM    = UTC
MEAN_ELEMENT_THEORY = SGP/SGP4

EPOCH          = 2025-12-20T06:00:02.999808
MEAN_MOTION    = 15.81371405
ECCENTRICITY   = .00018125
INCLINATION    = 43.0012
RA_OF_ASC_NODE = 121.1783
ARG_OF_PERICENTER = 268.3546
MEAN_ANOMALY   = 91.1063

EPHEMERIS_TYPE = 0
CLASSIFICATION_TYPE = U
NORAD_CAT_ID   = 66960
ELEMENT_SET_NO = 999
REV_AT_EPOCH   = 303
BSTAR          = -.70310094E-2
MEAN_MOTION_DOT = -.1268433E-1
MEAN_MOTION_DDOT = 0

CCSDS_OMM_VERS = 2.0
CREATION_DATE  = 
ORIGINATOR     = 

OBJECT_NAME    = STARLINK-35761
OBJECT_ID      = 2025-288C
CENTER_NAME    = EARTH
REF_FRAME      = TEME
TIME_SYSTEM    = UTC
MEAN_ELEMENT_THEORY = SGP/SGP4

EPOCH          = 2025-12-20T06:00:02.999808
MEAN_MOTION    = 15.81371352
ECCENTRICITY   = .00016014
INCLINATION    = 43.0011
RA_OF_ASC_NODE = 121.1734
ARG_OF_PERICENTER = 271.6203
MEAN_ANOMALY   = 89.9164

EPHEMERIS_TYPE = 0
CLASSIFICATION_TYPE = U
NORAD_CAT_ID   = 66961
ELEMENT_SET_NO = 999
REV_AT_EPOCH   = 303
BSTAR          = -.70991197E-2
MEAN_MOTION_DOT = -.1279115E-1
MEAN_MOTION_DDOT = 0

CCSDS_OMM_VERS = 2.0
CREATION_DATE  = 
ORIGINATOR     = 

OBJECT_NAME    = STARLINK-35874
OBJECT_ID      = 2025-288D
CENTER_NAME    = EARTH
REF_FRAME      = TEME
TIME_SYSTEM    = UTC
MEAN_ELEMENT_THEORY = SGP/SGP4

EPOCH          = 2025-12-20T06:00:02.999808
MEAN_MOTION    = 15.81325632
ECCENTRICITY   = .00018003
INCLINATION    = 43.0013
RA_OF_ASC_NODE = 121.1668
ARG_OF_PERICENTER = 265.5521
MEAN_ANOMALY   = 98.5449

EPHEMERIS_TYPE = 0
CLASSIFICATION_TYPE = U
NORAD_CAT_ID   = 66962
ELEMENT_SET_NO = 999
REV_AT_EPOCH   = 303
BSTAR          = -.71846102E-2
MEAN_MOTION_DOT = -.1290342E-1
MEAN_MOTION_DDOT = 0

