STARLINK-35999          
1 66951U 25286AC  25354.25003472 -.01630516  00000+0 -11086-1 0  9992
2 66951  53.1558  12.6129 0001023  89.0915 197.8186 15.76956954  3195
STARLINK-36122          
1 66952U 25286AD  25354.25003472 -.01582501  00000+0 -10918-1 0  9996
2 66952  53.1556  12.6219 0001064  82.6307 200.1586 15.77032698  3196
HULIANWANG DIGUI-114    
1 66953U 25287A   25352.62399740  .00000026  00000+0  10869-4 0  9995
2 66953  86.4968 344.0089 0008703 188.5983 171.5028 13.67416524  1330
HULIANWANG DIGUI-115    
1 66954U 25287B   25352.62327045  .00000026  00000+0  10945-4 0  9990
2 66954  86.4978 344.0137 0008947 187.4507 172.6520 13.67541232  1330
HULIANWANG DIGUI-116    
1 66955U 25287C   25352.62247367  .00000139  00000+0  14472-3 0  9992
2 66955  86.4902 344.0030 0008504 181.1085 179.0056 13.67658665  1335
HULIANWANG DIGUI-117    
1 66956U 25287D   25352.62166759  .00000026  00000+0  10922-4 0  9990
2 66956  86.4971 344.0126 0007676 176.3616 183.7600 13.67770338  1332
HULIANWANG DIGUI-118    
1 66957U 25287E   25353.71807434  .00000127  00000+0  13028-3 0  9995
2 66957  86.4967 343.6097 0007363 172.7883 187.3383 13.67870424  1480
CZ-6A R/B               
1 66958U 25287F   25354.23486664  .00000068  00000+0  34767-4 0  9990
2 66958  86.5061 343.2512 0107283  79.6243 281.7002 13.94920876  1587
STARLINK-35887          
1 66959U 25288A   25354.25003472 -.01268419  00000+0 -70338-2 0  9997
2 66959  43.0010 121.1834 0001675 271.2794  86.2309 15.81364373  3031
STARLINK-35879          
1 66960U 25288B   25354.25003472 -.01268433  00000+0 -70310-2 0  9995
2 66960  43.0012 121.1783 0001812 268.3546  91.1063 15.81371405  3039
STARLINK-35761          
1 66961U 25288C   25354.25003472 -.01279115  00000+0 -70991-2 0  9990
2 66961  43.0011 121.1734 0001601 271.6203  89.9164 15.81371352  3036
STARLINK-35874          
1 66962U 25288D   25354.25003472 -.01290342  00000+0 -71846-2 0  9996
2 66962  43.0013 121.1668 0001800 265.5521  98.5449 15.81325632  3033
